*******************************************************************************
 Revised: June 02, 2025                 Mars                            499 / 4
 
 PHYSICAL DATA (updated 2025-Jun-02):
  Vol. mean radius (km) = 3389.92+-0.04   Density (g/cm^3)      =  3.933(5+-4)
  Mass x10^23 (kg)      =    6.4171       Flattening, f         =  1/169.779
  Volume (x10^10 km^3)  =   16.318        Equatorial radius (km)=  3396.19
  Sidereal rot. period  =   24.622962 hr  Sid. rot. rate, rad/s =  0.0000708822 
  Mean solar day (sol)  =   88775.24415 s Polar gravity m/s^2   =  3.758
  Core radius (km)      = ~1700           Equ. gravity  m/s^2   =  3.71
  Geometric Albedo      =    0.150                                              

  GM (km^3/s^2)         = 42828.375662    Mass ratio (Sun/Mars) = 3098703.59
  GM 1-sigma (km^3/s^2) = +- 0.00028      Mass of atmosphere, kg= ~ 2.5 x 10^16
  Mean temperature (K)  =  210            Atmos. pressure (bar) =    0.0056 
  Obliquity to orbit    =   25.19 deg     Max. angular diam.    =  17.9"
  Mean sidereal orb per =    1.88081578 y Visual mag. V(1,0)    =  -1.52
  Mean sidereal orb per =  686.98 d       Orbital speed,  km/s  =  24.13
  Hill's sphere rad. Rp =  319.8          Escape speed, km/s    =   5.027
                                 Perihelion  Aphelion    Mean
  Solar Constant (W/m^2)         717         493         589
  Maximum Planetary IR (W/m^2)   470         315         390
  Minimum Planetary IR (W/m^2)    30          30          30
*******************************************************************************


*******************************************************************************
Ephemeris / WWW_USER Fri Dec 19 12:17:16 2025 Pasadena, USA      / Horizons
*******************************************************************************
Target body name: Mars (499)                      {source: mar099}
Center body name: Solar System Barycenter (0)     {source: DE441}
Center-site name: BODY CENTER
*******************************************************************************
Start time      : A.D. 2030-Sep-01 00:00:00.0000 TDB
Stop  time      : A.D. 2033-Jan-01 00:00:00.0000 TDB
Step-size       : 1440 minutes
*******************************************************************************
Center geodetic : 0.0, 0.0, 0.0                   {E-lon(deg),Lat(deg),Alt(km)}
Center cylindric: 0.0, 0.0, 0.0                   {E-lon(deg),Dxy(km),Dz(km)}
Center radii    : (undefined)
Output units    : AU-D
Calendar mode   : Mixed Julian/Gregorian
Output type     : GEOMETRIC cartesian states
Output format   : 3 (position, velocity, LT, range, range-rate)
Reference frame : Ecliptic of J2000.0
*******************************************************************************
            JDTDB,            Calendar Date (TDB),                      X,                      Y,                      Z,                     VX,                     VY,                     VZ,                     LT,                     RG,                     RR,
**************************************************************************************************************************************************************************************************************************************************************************
$$SOE
2463595.500000000, A.D. 2032-Dec-29 00:00:00.0000, -1.643429291388869E+00, -1.395226685358514E-01,  3.737852072660419E-02,  1.702029179622189E-03, -1.275254940765791E-02, -3.088934374495206E-04,  9.528246266140192E-03,  1.649764699780546E+00, -6.239925393535866E-04,
2463596.500000000, A.D. 2032-Dec-30 00:00:00.0000, -1.641672809180667E+00, -1.522704469534975E-01,  3.706839286456180E-02,  1.810936648198596E-03, -1.274286436875186E-02, -3.113593376475084E-04,  9.524615935660667E-03,  1.649136127543182E+00, -6.331468787869326E-04,
2463597.500000000, A.D. 2032-Dec-31 00:00:00.0000, -1.639807416287395E+00, -1.650081109470728E-01,  3.675580801972322E-02,  1.919849603668132E-03, -1.273232029308218E-02, -3.138073634942078E-04,  9.520932822806440E-03,  1.648498416320939E+00, -6.422704028357930E-04,
2463598.500000000, A.D. 2033-Jan-01 00:00:00.0000, -1.637833109995198E+00, -1.777348007405445E-01,  3.644078414592408E-02,  2.028762487394215E-03, -1.272091572111106E-02, -3.162373536589482E-04,  9.517197107020653E-03,  1.647851597183434E+00, -6.513625937066774E-04,
